{
  "type": "FeatureCollection",
  "features": [
    {
      "type": "Feature",
      "properties": {
        "norad_id": 63772,
        "name": "BIOMASS",
        "group": "resource",
        "lat": -24.87501809727518,
        "lon": -8.006348682653949,
        "alt_km": 675.0150205213149,
        "timestamp": "2025-12-16T19:34:23.923042+00:00",
        "meta_object_name": "BIOMASS",
        "meta_object_id": "2025-090A",
        "meta_epoch": "2025-12-15T18:05:46.959072",
        "meta_mean_motion": 14.67534088,
        "meta_eccentricity": 0.00011465,
        "meta_inclination": 98.0695,
        "meta_ra_of_asc_node": 174.7197,
        "meta_arg_of_pericenter": 82.2368,
        "meta_mean_anomaly": 277.8967,
        "meta_ephemeris_type": 0,
        "meta_classification_type": "U",
        "meta_norad_cat_id": 63772,
        "meta_element_set_no": 999,
        "meta_rev_at_epoch": 3378,
        "meta_bstar": 0.00020426914,
        "meta_mean_motion_dot": 1.11e-05,
        "meta_mean_motion_ddot": 0,
        "tle_line1": "1 63772U 25090A   25349.75401573  .00001110  00000+0  20427-3 0  9996",
        "tle_line2": "2 63772  98.0695 174.7197 0001146  82.2368 277.8967 14.67534088 33784"
      },
      "geometry": {
        "type": "Point",
        "coordinates": [
          -8.006348682653949,
          -24.87501809727518
        ]
      }
    },
    {
      "type": "Feature",
      "properties": {
        "norad_id": 64694,
        "name": "GOSAT-GW (IBUKI GW)",
        "group": "resource",
        "lat": 53.99941071401393,
        "lon": -84.96767123533961,
        "alt_km": 662.8715168388662,
        "timestamp": "2025-12-16T19:34:23.923052+00:00",
        "meta_object_name": "GOSAT-GW (IBUKI GW)",
        "meta_object_id": "2025-141A",
        "meta_epoch": "2025-12-15T22:03:07.280064",
        "meta_mean_motion": 14.67559128,
        "meta_eccentricity": 0.0001434,
        "meta_inclination": 98.0428,
        "meta_ra_of_asc_node": 285.374,
        "meta_arg_of_pericenter": 84.7983,
        "meta_mean_anomaly": 275.3385,
        "meta_ephemeris_type": 0,
        "meta_classification_type": "U",
        "meta_norad_cat_id": 64694,
        "meta_element_set_no": 999,
        "meta_rev_at_epoch": 2496,
        "meta_bstar": 0.00017257581,
        "meta_mean_motion_dot": 9.31e-06,
        "meta_mean_motion_ddot": 0,
        "tle_line1": "1 64694U 25141A   25349.91883426  .00000931  00000+0  17258-3 0  9994",
        "tle_line2": "2 64694  98.0428 285.3740 0001434  84.7983 275.3385 14.67559128 24964"
      },
      "geometry": {
        "type": "Point",
        "coordinates": [
          -84.96767123533961,
          53.99941071401393
        ]
      }
    },
    {
      "type": "Feature",
      "properties": {
        "norad_id": 64876,
        "name": "IONOSFERA-M 3",
        "group": "resource",
        "lat": 75.4631914578786,
        "lon": 168.16723257597593,
        "alt_km": 812.2843682441935,
        "timestamp": "2025-12-16T19:34:23.923063+00:00",
        "meta_object_name": "IONOSFERA-M 3",
        "meta_object_id": "2025-155A",
        "meta_epoch": "2025-12-15T22:49:26.196960",
        "meta_mean_motion": 14.21441875,
        "meta_eccentricity": 0.00021557,
        "meta_inclination": 98.5786,
        "meta_ra_of_asc_node": 311.7262,
        "meta_arg_of_pericenter": 54.9797,
        "meta_mean_anomaly": 305.1583,
        "meta_ephemeris_type": 0,
        "meta_classification_type": "U",
        "meta_norad_cat_id": 64876,
        "meta_element_set_no": 999,
        "meta_rev_at_epoch": 2037,
        "meta_bstar": 5.5953214e-05,
        "meta_mean_motion_dot": 8e-07,
        "meta_mean_motion_ddot": 0,
        "tle_line1": "1 64876U 25155A   25349.95099765  .00000080  00000+0  55953-4 0  9990",
        "tle_line2": "2 64876  98.5786 311.7262 0002155  54.9797 305.1583 14.21441875 20376"
      },
      "geometry": {
        "type": "Point",
        "coordinates": [
          168.16723257597593,
          75.4631914578786
        ]
      }
    },
    {
      "type": "Feature",
      "properties": {
        "norad_id": 64877,
        "name": "IONOSFERA-M 4",
        "group": "resource",
        "lat": -74.98315729785428,
        "lon": -13.272591328518892,
        "alt_km": 828.5589159523552,
        "timestamp": "2025-12-16T19:34:23.923073+00:00",
        "meta_object_name": "IONOSFERA-M 4",
        "meta_object_id": "2025-155B",
        "meta_epoch": "2025-12-15T21:58:33.919968",
        "meta_mean_motion": 14.21442966,
        "meta_eccentricity": 0.00015322,
        "meta_inclination": 98.5785,
        "meta_ra_of_asc_node": 311.6114,
        "meta_arg_of_pericenter": 60.1709,
        "meta_mean_anomaly": 299.9621,
        "meta_ephemeris_type": 0,
        "meta_classification_type": "U",
        "meta_norad_cat_id": 64877,
        "meta_element_set_no": 999,
        "meta_rev_at_epoch": 2036,
        "meta_bstar": 5.5737569e-05,
        "meta_mean_motion_dot": 7.9e-07,
        "meta_mean_motion_ddot": 0,
        "tle_line1": "1 64877U 25155B   25349.91567037  .00000079  00000+0  55738-4 0  9998",
        "tle_line2": "2 64877  98.5785 311.6114 0001532  60.1709 299.9621 14.21442966 20365"
      },
      "geometry": {
        "type": "Point",
        "coordinates": [
          -13.272591328518892,
          -74.98315729785428
        ]
      }
    },
    {
      "type": "Feature",
      "properties": {
        "norad_id": 64899,
        "name": "MICROCARB",
        "group": "resource",
        "lat": 78.42160299688959,
        "lon": -70.539647566222,
        "alt_km": 637.0402879145895,
        "timestamp": "2025-12-16T19:34:23.923083+00:00",
        "meta_object_name": "MICROCARB",
        "meta_object_id": "2025-156A",
        "meta_epoch": "2025-12-15T18:39:28.687968",
        "meta_mean_motion": 14.72061935,
        "meta_eccentricity": 0.00173209,
        "meta_inclination": 98.0024,
        "meta_ra_of_asc_node": 65.0741,
        "meta_arg_of_pericenter": 135.5274,
        "meta_mean_anomaly": 224.7327,
        "meta_ephemeris_type": 0,
        "meta_classification_type": "U",
        "meta_norad_cat_id": 64899,
        "meta_element_set_no": 999,
        "meta_rev_at_epoch": 2098,
        "meta_bstar": 0.00011696887,
        "meta_mean_motion_dot": 6.87e-06,
        "meta_mean_motion_ddot": 0,
        "tle_line1": "1 64899U 25156A   25349.77741537  .00000687  00000+0  11697-3 0  9996",
        "tle_line2": "2 64899  98.0024  65.0741 0017320 135.5274 224.7327 14.72061935 20988"
      },
      "geometry": {
        "type": "Point",
        "coordinates": [
          -70.539647566222,
          78.42160299688959
        ]
      }
    },
    {
      "type": "Feature",
      "properties": {
        "norad_id": 64900,
        "name": "CO3D 3",
        "group": "resource",
        "lat": 53.99051314166131,
        "lon": -102.5256377380578,
        "alt_km": 499.41219378215465,
        "timestamp": "2025-12-16T19:34:23.923093+00:00",
        "meta_object_name": "CO3D 3",
        "meta_object_id": "2025-156B",
        "meta_epoch": "2025-12-13T16:46:35.865408",
        "meta_mean_motion": 15.2020033,
        "meta_eccentricity": 0.00013843,
        "meta_inclination": 97.4344,
        "meta_ra_of_asc_node": 64.0523,
        "meta_arg_of_pericenter": 93.9049,
        "meta_mean_anomaly": 266.2345,
        "meta_ephemeris_type": 0,
        "meta_classification_type": "U",
        "meta_norad_cat_id": 64900,
        "meta_element_set_no": 999,
        "meta_rev_at_epoch": 2135,
        "meta_bstar": 0.00015817929,
        "meta_mean_motion_dot": 3.358e-05,
        "meta_mean_motion_ddot": 0,
        "tle_line1": "1 64900U 25156B   25347.69902622  .00003358  00000+0  15818-3 0  9999",
        "tle_line2": "2 64900  97.4344  64.0523 0001384  93.9049 266.2345 15.20200330 21357"
      },
      "geometry": {
        "type": "Point",
        "coordinates": [
          -102.5256377380578,
          53.99051314166131
        ]
      }
    },
    {
      "type": "Feature",
      "properties": {
        "norad_id": 64901,
        "name": "CO3D 4",
        "group": "resource",
        "lat": 55.049286113477166,
        "lon": -102.10745787458487,
        "alt_km": 499.6972183067701,
        "timestamp": "2025-12-16T19:34:23.923103+00:00",
        "meta_object_name": "CO3D 4",
        "meta_object_id": "2025-156C",
        "meta_epoch": "2025-12-16T00:04:18.698880",
        "meta_mean_motion": 15.20194933,
        "meta_eccentricity": 9.749e-05,
        "meta_inclination": 97.4346,
        "meta_ra_of_asc_node": 66.3236,
        "meta_arg_of_pericenter": 186.2126,
        "meta_mean_anomaly": 173.9098,
        "meta_ephemeris_type": 0,
        "meta_classification_type": "U",
        "meta_norad_cat_id": 64901,
        "meta_element_set_no": 999,
        "meta_rev_at_epoch": 2170,
        "meta_bstar": 0.00021321927,
        "meta_mean_motion_dot": 4.55e-05,
        "meta_mean_motion_ddot": 0,
        "tle_line1": "1 64901U 25156C   25350.00299420  .00004550  00000+0  21322-3 0  9996",
        "tle_line2": "2 64901  97.4346  66.3236 0000974 186.2126 173.9098 15.20194933 21701"
      },
      "geometry": {
        "type": "Point",
        "coordinates": [
          -102.10745787458487,
          55.049286113477166
        ]
      }
    }
  ]
}